[{"OBJECT_NAME":"ONEWEB-0704","OBJECT_ID":"2024-188R","EPOCH":"2025-10-24T15:49:20.557344","MEAN_MOTION":13.10371637,"ECCENTRICITY":0.0002541,"INCLINATION":87.8788,"RA_OF_ASC_NODE":83.1703,"ARG_OF_PERICENTER":90.0299,"MEAN_ANOMALY":270.112,"EPHEMERIS_TYPE":0,"CLASSIFICATION_TYPE":"U","NORAD_CAT_ID":61609,"ELEMENT_SET_NO":999,"REV_AT_EPOCH":5244,"BSTAR":-0.0013843,"MEAN_MOTION_DOT":-4.71e-6,"MEAN_MOTION_DDOT":0},{"OBJECT_NAME":"ONEWEB-0705","OBJECT_ID":"2024-188S","EPOCH":"2025-10-24T15:56:30.984864","MEAN_MOTION":13.10373283,"ECCENTRICITY":0.0002417,"INCLINATION":87.8772,"RA_OF_ASC_NODE":83.1974,"ARG_OF_PERICENTER":68.4467,"MEAN_ANOMALY":291.6918,"EPHEMERIS_TYPE":0,"CLASSIFICATION_TYPE":"U","NORAD_CAT_ID":61610,"ELEMENT_SET_NO":999,"REV_AT_EPOCH":4461,"BSTAR":-0.0020109,"MEAN_MOTION_DOT":-6.89e-6,"MEAN_MOTION_DDOT":0},{"OBJECT_NAME":"ONEWEB-0706","OBJECT_ID":"2024-188T","EPOCH":"2025-10-24T10:05:08.481120","MEAN_MOTION":13.10369342,"ECCENTRICITY":0.0002171,"INCLINATION":87.8764,"RA_OF_ASC_NODE":83.2707,"ARG_OF_PERICENTER":85.8752,"MEAN_ANOMALY":274.2624,"EPHEMERIS_TYPE":0,"CLASSIFICATION_TYPE":"U","NORAD_CAT_ID":61611,"ELEMENT_SET_NO":999,"REV_AT_EPOCH":5250,"BSTAR":-4.6938e-5,"MEAN_MOTION_DOT":-4.0e-8,"MEAN_MOTION_DDOT":0},{"OBJECT_NAME":"ONEWEB-0707","OBJECT_ID":"2024-188U","EPOCH":"2025-10-24T15:44:33.622080","MEAN_MOTION":13.10369464,"ECCENTRICITY":0.0002159,"INCLINATION":87.8779,"RA_OF_ASC_NODE":83.1946,"ARG_OF_PERICENTER":88.8776,"MEAN_ANOMALY":271.2599,"EPHEMERIS_TYPE":0,"CLASSIFICATION_TYPE":"U","NORAD_CAT_ID":61612,"ELEMENT_SET_NO":999,"REV_AT_EPOCH":5247,"BSTAR":-0.0010832,"MEAN_MOTION_DOT":-3.65e-6,"MEAN_MOTION_DDOT":0},{"OBJECT_NAME":"ONEWEB-0708","OBJECT_ID":"2024-188V","EPOCH":"2025-10-24T16:10:52.231296","MEAN_MOTION":13.10366798,"ECCENTRICITY":0.0001525,"INCLINATION":87.8771,"RA_OF_ASC_NODE":83.232,"ARG_OF_PERICENTER":74.8591,"MEAN_ANOMALY":285.2705,"EPHEMERIS_TYPE":0,"CLASSIFICATION_TYPE":"U","NORAD_CAT_ID":61613,"ELEMENT_SET_NO":999,"REV_AT_EPOCH":5245,"BSTAR":-0.0017747,"MEAN_MOTION_DOT":-6.07e-6,"MEAN_MOTION_DDOT":0}]
