ONEWEB-0704             
1 61609U 24188R   25297.65926571 -.00000471  00000+0 -13843-2 0  9995
2 61609  87.8788  83.1703 0002541  90.0299 270.1120 13.10371637 52443
ONEWEB-0705             
1 61610U 24188S   25297.66424751 -.00000689  00000+0 -20109-2 0  9995
2 61610  87.8772  83.1974 0002417  68.4467 291.6918 13.10373283 44618
ONEWEB-0706             
1 61611U 24188T   25297.42023705 -.00000004  00000+0 -46938-4 0  9995
2 61611  87.8764  83.2707 0002171  85.8752 274.2624 13.10369342 52501
ONEWEB-0707             
1 61612U 24188U   25297.65594470 -.00000365  00000+0 -10832-2 0  9995
2 61612  87.8779  83.1946 0002159  88.8776 271.2599 13.10369464 52476
ONEWEB-0708             
1 61613U 24188V   25297.67421564 -.00000607  00000+0 -17747-2 0  9992
2 61613  87.8771  83.2320 0001525  74.8591 285.2705 13.10366798 52451
